NORAD_CAT_ID,OBJECT_NAME,OBJECT_TYPE,EPOCH,MEAN_MOTION,ECCENTRICITY,INCLINATION,RA_OF_ASC_NODE,ARG_OF_PERICENTER,MEAN_ANOMALY,BSTAR,MEAN_MOTION_DOT,MEAN_MOTION_DDOT,TLE_LINE0,TLE_LINE1,TLE_LINE2,SEMIMAJOR_AXIS,PERIOD,APOGEE,PERIGEE,DECAYED
52838.0,STARLINK-4092,PAYLOAD,2022-12-26 09:57:42,15.088351,0.0001887,53.2169,243.2116,48.9204,311.1951,-1.2484e-05,-4.87e-06,0.0,0 STARLINK-4092,1 52838U 22062J   22360.41507899 -.00000487  00000-0 -12484-4 0  9998,2 52838  53.2169 243.2116 0001887  48.9204 311.1951 15.08835100 29265,6917.895,95.438,541.066,538.455,0.0
52838.0,STARLINK-4092,PAYLOAD,2022-12-26 16:19:15,15.08837575,0.0001971,53.2171,242.0213,51.5622,308.5547,2.8264e-05,1.62e-06,0.0,0 STARLINK-4092,1 52838U 22062J   22360.68003860  .00000162  00000-0  28264-4 0  9997,2 52838  53.2171 242.0213 0001971  51.5622 308.5547 15.08837575 29798,6917.888000000001,95.438,541.116,538.389,0.0
52838.0,STARLINK-4092,PAYLOAD,2022-12-26 19:30:01,15.08843942,0.0002047,53.2168,241.4276,50.7385,309.3789,0.00012555,1.711e-05,0.0,0 STARLINK-4092,1 52838U 22062J   22360.81251602  .00001711  00000-0  12555-3 0  9997,2 52838  53.2168 241.4276 0002047  50.7385 309.3789 15.08843942 29329,6917.868,95.437,541.149,538.317,0.0
52838.0,STARLINK-4092,PAYLOAD,2022-12-26 22:40:47,15.08847986,0.0001981,53.2167,240.8322,53.1769,306.9404,0.00019272,2.781e-05,0.0,0 STARLINK-4092,1 52838U 22062J   22360.94499384  .00002781  00000-0  19272-3 0  9993,2 52838  53.2167 240.8322 0001981  53.1769 306.9404 15.08847986 29837,6917.856,95.437,541.091,538.351,0.0
52838.0,STARLINK-4092,PAYLOAD,2022-12-27 19:20:47,15.08858992,0.0002034,53.2164,236.9662,55.8524,304.2661,0.00043285,6.611e-05,0.0,0 STARLINK-4092,1 52838U 22062J   22361.80610715  .00006611  00000-0  43285-3 0  9999,2 52838  53.2164 236.9662 0002034  55.8524 304.2661 15.08858992 29470,6917.821999999999,95.436,541.094,538.28,0.0
52838.0,STARLINK-4092,PAYLOAD,2022-12-27 22:31:34,15.08851352,0.0001891,53.2164,236.3714,61.5983,298.5199,0.00081831,0.00012763,0.0,0 STARLINK-4092,1 52838U 22062J   22361.93859098  .00012763  00000-0  81831-3 0  9996,2 52838  53.2164 236.3714 0001891  61.5983 298.5199 15.08851352 29491,6917.846,95.437,541.019,538.403,0.0
52838.0,STARLINK-4092,PAYLOAD,2022-12-29 01:33:07,15.08840847,0.0002379999999999,53.2166,231.3177,47.8141,312.3053,-4.518e-05,-1.007e-05,0.0,0 STARLINK-4092,1 52838U 22062J   22363.06467016 -.00001007  00000-0 -45180-4 0  9996,2 52838  53.2166 231.3177 0002380  47.8141 312.3053 15.08840847 30154,6917.878000000002,95.438,541.389,538.096,0.0
52838.0,STARLINK-4092,PAYLOAD,2022-12-29 22:13:09,15.08827379,0.0002086999999999,53.216,227.452,54.0778,306.0407,-0.00011032,-2.043e-05,0.0,0 STARLINK-4092,1 52838U 22062J   22363.92580127 -.00002043  00000-0 -11032-3 0  9999,2 52838  53.2160 227.4520 0002087  54.0778 306.0407 15.08827379 30288,6917.919,95.438,541.2280000000002,538.34,0.0
52838.0,STARLINK-4092,PAYLOAD,2022-12-30 07:45:28,15.08832052,0.0001678,53.2157,225.6686,69.8204,290.2968,-0.0001571,-2.787e-05,0.0,0 STARLINK-4092,1 52838U 22062J   22364.32324177 -.00002787  00000-0 -15710-3 0  9997,2 52838  53.2157 225.6686 0001678  69.8204 290.2968 15.08832052 29851,6917.905,95.438,540.931,538.609,0.0
52838.0,STARLINK-4092,PAYLOAD,2022-12-31 01:14:43,15.08841229,0.0002037,53.2161,222.3971,48.7124,311.4043,0.0004076,6.205e-05,0.0,0 STARLINK-4092,1 52838U 22062J   22365.05188711  .00006205  00000-0  40760-3 0  9990,2 52838  53.2161 222.3971 0002037  48.7124 311.4043 15.08841229 30458,6917.877,95.437,541.151,538.332,0.0
52838.0,STARLINK-4092,PAYLOAD,2022-12-31 07:36:15,15.08846708,0.0002029999999999,53.216,221.2077,48.824,311.2927,0.0004626,7.083e-05,0.0,0 STARLINK-4092,1 52838U 22062J   22365.31684517  .00007083  00000-0  46260-3 0  9990,2 52838  53.2160 221.2077 0002030  48.8240 311.2927 15.08846708 30002,6917.86,95.437,541.129,538.321,0.0
52838.0,STARLINK-4092,PAYLOAD,2022-12-31 15:33:10,15.08856982,0.0001991,53.2161,219.7209,49.1169,310.9996,0.00059471,9.194e-05,0.0,0 STARLINK-4092,1 52838U 22062J   22365.64804216  .00009194  00000-0  59471-3 0  9999,2 52838  53.2161 219.7209 0001991  49.1169 310.9996 15.08856982 30053,6917.828,95.436,541.071,538.316,0.0
52838.0,STARLINK-4092,PAYLOAD,2022-12-31 18:43:56,15.08861719,0.0001995,53.2162,219.1262,49.4545,310.6620000000001,0.00065371,0.00010137,0.0,0 STARLINK-4092,1 52838U 22062J   22365.78051987  .00010137  00000-0  65371-3 0  9998,2 52838  53.2162 219.1262 0001995  49.4545 310.6620 15.08861719 30563,6917.814,95.436,541.059,538.299,0.0
52838.0,STARLINK-4092,PAYLOAD,2023-01-01 07:27:02,15.08846691,0.0001979,53.2159,216.7474,46.631,313.4847,4.1746e-05,3.76e-06,0.0,0 STARLINK-4092,1 52838U 22062J   23001.31044005  .00000376  00000-0  41746-4 0  9993,2 52838  53.2159 216.7474 0001979  46.6310 313.4847 15.08846691 30641,6917.86,95.437,541.094,538.356,0.0
52838.0,STARLINK-4092,PAYLOAD,2023-01-01 13:48:34,15.08839458,0.0002224,53.2152,215.5591,50.3577,309.7611,-8.3056e-05,-1.6100000000000002e-05,0.0,0 STARLINK-4092,1 52838U 22062J   23001.57540246 -.00001610  00000-0 -83056-4 0  9993,2 52838  53.2152 215.5591 0002224  50.3577 309.7611 15.08839458 30192,6917.882,95.438,541.286,538.2090000000002,0.0
52838.0,STARLINK-4092,PAYLOAD,2023-01-01 20:10:07,15.08835428,0.0002186,53.2162,214.36900000000003,50.8429,309.2758,-0.00010788,-2.005e-05,0.0,0 STARLINK-4092,1 52838U 22062J   23001.84036526 -.00002005  00000-0 -10788-3 0  9994,2 52838  53.2162 214.3690 0002186  50.8429 309.2758 15.08835428 30233,6917.894,95.438,541.2719999999998,538.247,0.0
52838.0,STARLINK-4092,PAYLOAD,2023-01-01 23:20:53,15.08833371,0.0002066999999999,53.2156,213.7741,47.9156,312.2011,-0.00012748,-2.316e-05,0.0,0 STARLINK-4092,1 52838U 22062J   23001.97284709 -.00002316  00000-0 -12748-3 0  9999,2 52838  53.2156 213.7741 0002067  47.9156 312.2011 15.08833371 30745,6917.901,95.438,541.196,538.336,0.0
52838.0,STARLINK-4092,PAYLOAD,2023-01-02 13:39:22,15.08840188,0.0002041,53.2162,211.0975,47.6557,312.4607,1.8423e-05,5e-08,0.0,0 STARLINK-4092,1 52838U 22062J   23002.56900786  .00000005  00000-0  18423-4 0  9993,2 52838  53.2162 211.0975 0002041  47.6557 312.4607 15.08840188 30349,6917.88,95.438,541.1569999999998,538.3330000000002,0.0
52838.0,STARLINK-4092,PAYLOAD,2023-01-02 20:00:54,15.088425199999998,0.0002055,53.2163,209.9085,47.8549,312.2617,5.755e-05,6.28e-06,0.0,0 STARLINK-4092,1 52838U 22062J   23002.83396708  .00000628  00000-0  57550-4 0  9991,2 52838  53.2163 209.9085 0002055  47.8549 312.2617 15.08842520 30875,6917.873000000001,95.437,541.159,538.316,0.0
52838.0,STARLINK-4092,PAYLOAD,2023-01-03 13:30:09,15.08847906,0.0001996999999999,53.2161,206.6369,47.33600000000001,312.78,0.0003607,5.458e-05,0.0,0 STARLINK-4092,1 52838U 22062J   23003.56260563  .00005458  00000-0  36070-3 0  9990,2 52838  53.2161 206.6369 0001997  47.3360 312.7800 15.08847906 30492,6917.856,95.437,541.1030000000002,538.34,0.0
52838.0,STARLINK-4092,PAYLOAD,2023-01-03 19:51:41,15.08858916,0.0002043,53.2155,205.4475,48.0948,312.0218,0.00053477,8.237e-05,0.0,0 STARLINK-4092,1 52838U 22062J   23003.82756188  .00008237  00000-0  53477-3 0  9990,2 52838  53.2155 205.4475 0002043  48.0948 312.0218 15.08858916 31022,6917.823,95.436,541.101,538.274,0.0
52838.0,STARLINK-4092,PAYLOAD,2023-01-04 19:42:28,15.08851397,0.0002075,53.2154,200.9871,49.1232,310.9939,0.00015671,2.207e-05,0.0,0 STARLINK-4092,1 52838U 22062J   23004.82115811  .00002207  00000-0  15671-3 0  9998,2 52838  53.2154 200.9871 0002075  49.1232 310.9939 15.08851397 31173,6917.846,95.437,541.146,538.275,0.0
52838.0,STARLINK-4092,PAYLOAD,2023-01-05 00:28:37,15.08855628,0.0002063,53.2154,200.0949,49.694,310.4232,0.00020862,3.035e-05,0.0,0 STARLINK-4092,1 52838U 22062J   23005.01987492  .00003035  00000-0  20862-3 0  9990,2 52838  53.2154 200.0949 0002063  49.6940 310.4232 15.08855628 30719,6917.833000000001,95.437,541.125,538.27,0.0
52838.0,STARLINK-4092,PAYLOAD,2023-01-05 14:47:06,15.08834611,0.0001761999999999,53.2154,197.4186,51.4488,308.6662,-0.00020573,-3.5600000000000005e-05,0.0,0 STARLINK-4092,1 52838U 22062J   23005.61604228 -.00003560  00000-0 -20573-3 0  9993,2 52838  53.2154 197.4186 0001762  51.4488 308.6662 15.08834611 30809,6917.897,95.438,540.981,538.543,0.0
52838.0,STARLINK-4092,PAYLOAD,2023-01-06 05:05:34,15.08833189,0.0001946,53.2148,194.7425,50.0797,310.0365,-6.0631e-05,-1.253e-05,0.0,0 STARLINK-4092,1 52838U 22062J   23006.21220635 -.00001253  00000-0 -60631-4 0  9993,2 52838  53.2148 194.7425 0001946  50.0797 310.0365 15.08833189 31380,6917.901,95.438,541.112,538.42,0.0
52838.0,STARLINK-4092,PAYLOAD,2023-01-06 14:37:53,15.08835031,0.0001947,53.2147,192.9582,51.1924,308.9242,-4.0688e-05,-9.36e-06,0.0,0 STARLINK-4092,1 52838U 22062J   23006.60964693 -.00000936  00000-0 -40688-4 0  9992,2 52838  53.2147 192.9582 0001947  51.1924 308.9242 15.08835031 30958,6917.896,95.438,541.107,538.414,0.0
52838.0,STARLINK-4092,PAYLOAD,2023-01-07 04:56:21,15.08835987,0.0001967,53.2148,190.282,52.1598,307.9572,4.1344e-05,3.700000000000001e-06,0.0,0 STARLINK-4092,1 52838U 22062J   23007.20580948  .00000370  00000-0  41344-4 0  9996,2 52838  53.2148 190.2820 0001967  52.1598 307.9572 15.08835987 31041,6917.893,95.438,541.118,538.3969999999998,0.0
52838.0,STARLINK-4092,PAYLOAD,2023-01-07 11:17:54,15.08833306,0.0001951,53.2147,189.0925,53.8819,306.2353,0.00017893,2.56e-05,0.0,0 STARLINK-4092,1 52838U 22062J   23007.47077287  .00002560  00000-0  17893-3 0  9996,2 52838  53.2147 189.0925 0001951  53.8819 306.2353 15.08833306 31579,6917.901,95.438,541.116,538.4159999999998,0.0
52838.0,STARLINK-4092,PAYLOAD,2023-01-07 12:53:17,15.08832572,0.0001952,53.2147,188.7951,54.0917,306.0256,0.00016311,2.308e-05,0.0,0 STARLINK-4092,1 52838U 22062J   23007.53701377  .00002308  00000-0  16311-3 0  9991,2 52838  53.2147 188.7951 0001952  54.0917 306.0256 15.08832572 31098,6917.903,95.438,541.118,538.418,0.0
